[{"OBJECT_NAME":"YAOGAN-43 01G","OBJECT_ID":"2024-148G","EPOCH":"2026-03-09T10:38:37.087584","MEAN_MOTION":15.28332833,"ECCENTRICITY":0.00073829,"INCLINATION":35.0006,"RA_OF_ASC_NODE":62.0013,"ARG_OF_PERICENTER":306.3543,"MEAN_ANOMALY":53.6492,"EPHEMERIS_TYPE":0,"CLASSIFICATION_TYPE":"U","NORAD_CAT_ID":60464,"ELEMENT_SET_NO":999,"REV_AT_EPOCH":8700,"BSTAR":0.00035872736,"MEAN_MOTION_DOT":0.00010133,"MEAN_MOTION_DDOT":0},{"OBJECT_NAME":"STARLINK-35403","OBJECT_ID":"2025-235Z","EPOCH":"2026-03-09T19:20:42.203328","MEAN_MOTION":15.30204054,"ECCENTRICITY":0.00010172,"INCLINATION":53.1594,"RA_OF_ASC_NODE":244.413,"ARG_OF_PERICENTER":94.1706,"MEAN_ANOMALY":265.9411,"EPHEMERIS_TYPE":0,"CLASSIFICATION_TYPE":"U","NORAD_CAT_ID":66081,"ELEMENT_SET_NO":999,"REV_AT_EPOCH":2294,"BSTAR":0.0007062888,"MEAN_MOTION_DOT":0.0002062,"MEAN_MOTION_DDOT":0}]
